GLOBALSTAR M045         
1 25676U 99019A   26011.90129299 -.00000104  00000+0 -91373-4 0  9998
2 25676  51.9977  70.3842 0000406 158.9718  11.8762 12.27070892219015
GLOBALSTAR M019         
1 25677U 99019B   26011.82875215 -.00000155  00000+0 -67906-3 0  9996
2 25677  51.9854 215.6423 0002179  51.8790 321.1907 12.13881605210486
GLOBALSTAR M044         
1 25678U 99019C   26011.97404951 -.00000059  00000+0  34405-3 0  9998
2 25678  51.9933 192.7153 0007251  83.2372  84.8337 11.90263936196186
GLOBALSTAR M042         
1 25679U 99019D   26011.89018605 -.00000047  00000+0  42353-3 0  9995
2 25679  51.9992 181.7738 0003282  31.9750 115.5232 12.22095998210774
GLOBALSTAR M025         
1 25770U 99031A   26011.78711230 -.00000063  00000+0  13644-3 0  9992
2 25770  51.9840  36.0324 0002378 132.2517  39.2866 11.22560376505130
GLOBALSTAR M049         
1 25771U 99031B   26011.87374125 -.00000083  00000+0 -62313-3 0  9991
2 25771  51.9883  81.0815 0002558  22.4988 337.5920 11.12124304140647
GLOBALSTAR M047         
1 25772U 99031C   26011.81985893 -.00000084  00000+0 -40951-3 0  9991
2 25772  51.9845  58.2408 0016217 259.7402 100.1575 11.31931894494736
GLOBALSTAR M052         
1 25773U 99031D   26011.94681112 -.00000023  00000+0  14339-2 0  9995
2 25773  51.9827 186.6548 0003398 136.9353  34.1371 11.15063521501795
